{
  "57977": {
    "noradId": "57977",
    "tle": [
      "1 57977C 23151P   26034.50673611  .00003658  00000+0  26991-3 0   342",
      "2 57977  43.0017 177.9156 0001575 267.6975  99.8452 15.02535196    13"
    ]
  },
  "57978": {
    "noradId": "57978",
    "tle": [
      "1 57978C 23151Q   26034.50465278  .00002467  00000+0  18200-3 0   342",
      "2 57978  43.0018 177.8411 0001484 267.1397 125.1858 15.02537312    15"
    ]
  },
  "57979": {
    "noradId": "57979",
    "tle": [
      "1 57979C 23151R   26034.50326389 -.00014153  00000+0 -10443-2 0   349",
      "2 57979  43.0014 177.8001 0002080 264.5559 138.2924 15.02547135    14"
    ]
  },
  "57980": {
    "noradId": "57980",
    "tle": [
      "1 57980C 23151S   26034.50604167  .00927760  00000+0  66879-2 0   343",
      "2 57980  42.9848  55.8748 0023881  99.4305 326.4380 15.71277918    10"
    ]
  },
  "57981": {
    "noradId": "57981",
    "tle": [
      "1 57981C 23151T   26034.50256944  .00008960  00000+0  66122-3 0   344",
      "2 57981  43.0015 177.7660 0001475 268.3402 148.7902 15.02519482    10"
    ]
  },
  "57982": {
    "noradId": "57982",
    "tle": [
      "1 57982C 23151U   26034.50395833  .00002207  00000+0  16286-3 0   340",
      "2 57982  43.0014 177.7149 0001743 270.6153 172.0612 15.02533000    19"
    ]
  },
  "57983": {
    "noradId": "57983",
    "tle": [
      "1 57983C 23151V   26034.50604167 -.00000725  00000+0 -53511-4 0   342",
      "2 57983  43.0019 177.6602 0001568 266.0272 205.9505 15.02540607    12"
    ]
  },
  "57984": {
    "noradId": "57984",
    "tle": [
      "1 57984C 23151W   26034.50326389  .00002097  00000+0  15469-3 0   341",
      "2 57984  43.0016 177.6323 0001792 265.6893 209.2206 15.02544306    18"
    ]
  },
  "57985": {
    "noradId": "57985",
    "tle": [
      "1 57985C 23151X   26034.50326389  .00002463  00000+0  18175-3 0   346",
      "2 57985  43.0019 177.5873 0001572 263.9042 229.0846 15.02536432    15"
    ]
  },
  "57991": {
    "noradId": "57991",
    "tle": [
      "1 57991C 23153A   26034.50326389  .00007468  00000+0  55105-3 0   349",
      "2 57991  43.0005 254.8813 0001239 260.7117 313.1953 15.02526235    12"
    ]
  },
  "57992": {
    "noradId": "57992",
    "tle": [
      "1 57992C 23153B   26034.50881944  .00063036  00000+0  46569-2 0   349",
      "2 57992  43.0006 254.9750 0001435 268.2427 281.6925 15.02426573    12"
    ]
  },
  "57993": {
    "noradId": "57993",
    "tle": [
      "1 57993C 23153C   26034.50673611  .00007719  00000+0  56962-3 0   345",
      "2 57993  43.0012 254.7758 0001391 251.5017  17.1661 15.02525507    13"
    ]
  },
  "57994": {
    "noradId": "57994",
    "tle": [
      "1 57994C 23153D   26034.50812500  .00004289  00000+0  31653-3 0   347",
      "2 57994  43.0011 254.6781 0001251 264.7288  47.6184 15.02526628    12"
    ]
  },
  "57995": {
    "noradId": "57995",
    "tle": [
      "1 57995C 23153E   26034.50604167  .00007389  00000+0  54522-3 0   340",
      "2 57995  43.0012 254.6460 0001213 259.0416  60.0660 15.02528013    14"
    ]
  },
  "57997": {
    "noradId": "57997",
    "tle": [
      "1 57997C 23153G   26034.50812500  .00007768  00000+0  57328-3 0   342",
      "2 57997  43.0009 254.7244 0001268 265.5276  28.8198 15.02520580    18"
    ]
  },
  "57998": {
    "noradId": "57998",
    "tle": [
      "1 57998C 23153H   26034.50881944  .00007803  00000+0  57563-3 0   342",
      "2 57998  43.0013 254.2509 0001300 263.4260 232.8531 15.02536513    11"
    ]
  },
  "57999": {
    "noradId": "57999",
    "tle": [
      "1 57999C 23153J   26034.50881944 -.00002732  00000+0 -20147-3 0   349",
      "2 57999  43.0013 254.5479 0001204 260.1674 109.9483 15.02552527    10"
    ]
  },
  "58000": {
    "noradId": "58000",
    "tle": [
      "1 58000C 23153K   26034.50604167  .00005760  00000+0  42498-3 0   348",
      "2 58000  43.0010 254.5167 0001212 249.6842 123.4567 15.02531678    11"
    ]
  },
  "58001": {
    "noradId": "58001",
    "tle": [
      "1 58001C 23153L   26034.50465278  .00007465  00000+0  55084-3 0   346",
      "2 58001  43.0009 254.4813 0001250 260.4623 123.2599 15.02527467    11"
    ]
  },
  "58002": {
    "noradId": "58002",
    "tle": [
      "1 58002C 23153M   26034.50604167  .00007458  00000+0  55031-3 0   343",
      "2 58002  43.0011 254.9304 0001365 262.2498 290.6534 15.02526286    18"
    ]
  },
  "58003": {
    "noradId": "58003",
    "tle": [
      "1 58003C 23153N   26034.50534722  .00007078  00000+0  52252-3 0   343",
      "2 58003  43.0013 254.4325 0001407 267.1348 138.4753 15.02506973    17"
    ]
  },
  "58004": {
    "noradId": "58004",
    "tle": [
      "1 58004C 23153P   26034.50534722  .00037764  00000+0  27916-2 0   347",
      "2 58004  43.0005 254.3945 0001305 265.5174 158.0991 15.02428560    19"
    ]
  },
  "58005": {
    "noradId": "58005",
    "tle": [
      "1 58005C 23153Q   26034.50187500  .00007124  00000+0  52582-3 0   341",
      "2 58005  43.0015 254.3221 0001447 265.2204 175.6126 15.02516002    10"
    ]
  },
  "58006": {
    "noradId": "58006",
    "tle": [
      "1 58006C 23153R   26034.50881944 -.00002340  00000+0 -17268-3 0   344",
      "2 58006  43.0009 229.2752 0001329 265.6543 137.2181 15.02537462    11"
    ]
  },
  "58007": {
    "noradId": "58007",
    "tle": [
      "1 58007C 23153S   26034.50187500 -.00003588  00000+0 -12988-3 0   341",
      "2 58007  43.0039  31.4557 0001404 270.8004 356.9439 15.27605647    19"
    ]
  },
  "58008": {
    "noradId": "58008",
    "tle": [
      "1 58008C 23153T   26034.50604167  .00006984  00000+0  51533-3 0   345",
      "2 58008  43.0006 254.5974 0001301 261.0050  76.1348 15.02525756    19"
    ]
  },
  "58009": {
    "noradId": "58009",
    "tle": [
      "1 58009C 23153U   26034.50673611  .00007284  00000+0  53753-3 0   346",
      "2 58009  43.0011 254.3351 0001347 261.0465 188.0519 15.02524772    13"
    ]
  },
  "58010": {
    "noradId": "58010",
    "tle": [
      "1 58010C 23153V   26034.50187500  .00007130  00000+0  52641-3 0   340",
      "2 58010  43.0012 255.0819 0001094 259.5238 216.7391 15.02507840    16"
    ]
  },
  "58011": {
    "noradId": "58011",
    "tle": [
      "1 58011C 23153W   26034.50604167  .00007225  00000+0  53319-3 0   342",
      "2 58011  43.0009 255.0160 0000947 270.6787 246.1606 15.02524698    17"
    ]
  },
  "58012": {
    "noradId": "58012",
    "tle": [
      "1 58012C 23153X   26034.50812500  .00001478  00000+0  10910-3 0   349",
      "2 58012  43.0014 254.8737 0001270 267.9350 314.2863 15.02526110    19"
    ]
  },
  "58028": {
    "noradId": "58028",
    "tle": [
      "1 58028C 23156A   26034.50881944 -.00000216  00000+0 -72816-5 0   343",
      "2 58028  53.1575 236.9378 0001284  89.3876 342.1392 15.30189620    15"
    ]
  },
  "58029": {
    "noradId": "58029",
    "tle": [
      "1 58029C 23156B   26034.50743056  .00004441  00000+0  14968-3 0   349",
      "2 58029  53.1570 237.0555 0001232  85.2862 286.2400 15.30183100    18"
    ]
  },
  "58030": {
    "noradId": "58030",
    "tle": [
      "1 58030C 23156C   26034.50534722 -.00005177  00000+0 -17449-3 0   345",
      "2 58030  53.1564 237.1645 0001270  89.0385 125.7344 15.30195949    16"
    ]
  },
  "58031": {
    "noradId": "58031",
    "tle": [
      "1 58031C 23156D   26034.50395833 -.00006889  00000+0 -23219-3 0   347",
      "2 58031  53.1562 247.1843 0001222  90.1192  18.7248 15.30198072    16"
    ]
  },
  "58032": {
    "noradId": "58032",
    "tle": [
      "1 58032C 23156E   26034.50395833 -.00003744  00000+0 -12618-3 0   346",
      "2 58032  53.1564 237.2412 0001248  86.5305  85.6985 15.30193169    17"
    ]
  },
  "58033": {
    "noradId": "58033",
    "tle": [
      "1 58033C 23156F   26034.50881944  .00061362  00000+0  20669-2 0   342",
      "2 58033  53.1591 326.6651 0001260  90.9346 266.6972 15.30148872    12"
    ]
  },
  "58034": {
    "noradId": "58034",
    "tle": [
      "1 58034C 23156G   26034.50256944 -.00008229  00000+0 -27733-3 0   344",
      "2 58034  53.1566 237.2762 0001203  82.6618  70.2666 15.30200734    17"
    ]
  },
  "58035": {
    "noradId": "58035",
    "tle": [
      "1 58035C 23156H   26034.50604167  .00021652  00000+0  73083-3 0   341",
      "2 58035  53.1580 236.8894 0001153  74.9056  10.4769 15.30122668    18"
    ]
  },
  "58036": {
    "noradId": "58036",
    "tle": [
      "1 58036C 23156J   26034.50812500  .00002711  00000+0  91355-4 0   342",
      "2 58036  53.1573 236.9674 0001285  86.4311 323.8256 15.30188886    12"
    ]
  },
  "58037": {
    "noradId": "58037",
    "tle": [
      "1 58037C 23156K   26034.50673611 -.00002096  00000+0 -70631-4 0   343",
      "2 58037  53.1604 326.9815 0001225  91.1733  92.2194 15.30192801    10"
    ]
  },
  "58038": {
    "noradId": "58038",
    "tle": [
      "1 58038C 23156L   26034.50187500 -.00001032  00000+0 -34774-4 0   348",
      "2 58038  53.1565 234.3311 0001167  94.4938 191.7872 15.30192099    15"
    ]
  },
  "58039": {
    "noradId": "58039",
    "tle": [
      "1 58039C 23156M   26034.50881944  .00542350  00000+0  61870-2 0   348",
      "2 58039  53.1489 330.5802 0010700 141.2815 341.7109 15.60969318    12"
    ]
  },
  "58040": {
    "noradId": "58040",
    "tle": [
      "1 58040C 23156N   26034.50812500 -.00004938  00000+0 -16645-3 0   340",
      "2 58040  53.1602 326.9142 0001337  87.0922 144.6549 15.30193158    15"
    ]
  },
  "58041": {
    "noradId": "58041",
    "tle": [
      "1 58041C 23156P   26034.50812500 -.00000604  00000+0 -20361-4 0   348",
      "2 58041  53.1576 237.0045 0001212  87.9673  31.9424 15.30190313    14"
    ]
  },
  "58042": {
    "noradId": "58042",
    "tle": [
      "1 58042C 23156Q   26034.50673611 -.00001304  00000+0 -43939-4 0   341",
      "2 58042  53.1578 234.5343 0001281  90.2486  31.0170 15.30192621    18"
    ]
  }
}